2025-08-03 17:32:36,620 - src.stk_interface.stk_manager - INFO - åœºæ™¯Childrenå¯¹è±¡åˆ—è¡¨:
2025-08-03 17:32:36,667 - src.stk_interface.stk_manager - INFO - Child 0: ClassName=Satellite, InstanceName=Satellite01, Name=None
2025-08-03 17:32:36,710 - src.stk_interface.stk_manager - INFO - Child 1: ClassName=Satellite, InstanceName=Satellite02, Name=None
2025-08-03 17:32:36,746 - src.stk_interface.stk_manager - INFO - Child 2: ClassName=Satellite, InstanceName=Satellite03, Name=None
2025-08-03 17:32:36,791 - src.stk_interface.stk_manager - INFO - Child 3: ClassName=Satellite, InstanceName=Satellite04, Name=None
2025-08-03 17:32:36,844 - src.stk_interface.stk_manager - INFO - Child 4: ClassName=Satellite, InstanceName=Satellite05, Name=None
2025-08-03 17:32:36,895 - src.stk_interface.stk_manager - INFO - Child 5: ClassName=Satellite, InstanceName=Satellite06, Name=None
2025-08-03 17:32:36,941 - src.stk_interface.stk_manager - INFO - Child 6: ClassName=Satellite, InstanceName=Satellite07, Name=None
2025-08-03 17:32:36,983 - src.stk_interface.stk_manager - INFO - Child 7: ClassName=Satellite, InstanceName=Satellite08, Name=None
2025-08-03 17:32:37,018 - src.stk_interface.stk_manager - INFO - Child 8: ClassName=Satellite, InstanceName=Satellite09, Name=None
2025-08-03 17:32:37,417 - src.stk_interface.stk_manager - INFO - è½¨é“ä¼ æ’­å™¨ç±»å‹è®¾ç½®æˆåŠŸ
2025-08-03 17:32:37,417 - src.stk_interface.stk_manager - INFO - å¼€å§‹è®¾ç½®å«æ˜Ÿè½¨é“å‚æ•°...
2025-08-03 17:32:37,417 - src.stk_interface.stk_manager - INFO - æ¥æ”¶åˆ°çš„è½¨é“å‚æ•°: {'semi_axis': 7571.0, 'eccentricity': 0.0, 'inclination': 55.0, 'raan': 264.0, 'arg_of_perigee': 12, 'mean_anomaly': 60.0}
2025-08-03 17:32:37,418 - src.stk_interface.stk_manager - INFO - å‚æ•° semi_axis = 7571.0 km åœ¨åˆç†èŒƒå›´å†…
2025-08-03 17:32:37,418 - src.stk_interface.stk_manager - INFO - å‚æ•° eccentricity = 0.0 æ— é‡çº² åœ¨åˆç†èŒƒå›´å†…
2025-08-03 17:32:37,418 - src.stk_interface.stk_manager - INFO - å‚æ•° inclination = 55.0 åº¦ åœ¨åˆç†èŒƒå›´å†…
2025-08-03 17:32:37,418 - src.stk_interface.stk_manager - INFO - å‚æ•° raan = 264.0 åº¦ åœ¨åˆç†èŒƒå›´å†…
2025-08-03 17:32:37,418 - src.stk_interface.stk_manager - INFO - å‚æ•° arg_of_perigee = 12 åº¦ åœ¨åˆç†èŒƒå›´å†…
2025-08-03 17:32:37,418 - src.stk_interface.stk_manager - INFO - å‚æ•° mean_anomaly = 60.0 åº¦ åœ¨åˆç†èŒƒå›´å†…
2025-08-03 17:32:37,418 - src.stk_interface.stk_manager - INFO - ğŸ”„ ä½¿ç”¨ä¼˜åŒ–çš„COMæ¥å£è®¾ç½®è½¨é“å‚æ•°...
2025-08-03 17:32:37,418 - src.stk_interface.stk_manager - INFO - å°è¯•ä½¿ç”¨Keplerianè½¨é“è¡¨ç¤ºæ³•...
2025-08-03 17:32:37,669 - src.stk_interface.stk_manager - INFO - âœ… Keplerianè½¨é“å‚æ•°è®¾ç½®æˆåŠŸ
2025-08-03 17:32:37,671 - src.stk_interface.stk_manager - INFO - âœ… ä¼ æ’­å™¨ç±»å‹è®¾ç½®ä¸ºJ2æ‘„åŠ¨
2025-08-03 17:32:37,739 - src.stk_interface.stk_manager - INFO - âœ… è½¨é“ä¼ æ’­å®Œæˆ
2025-08-03 17:32:37,739 - src.stk_interface.stk_manager - INFO - âœ… è½¨é“å‚æ•°è®¾ç½®æˆåŠŸï¼Œå«æ˜Ÿè½¨é“å·²æ›´æ–°
2025-08-03 17:32:37,841 - src.stk_interface.stk_manager - INFO - å«æ˜Ÿ Satellite09 åˆ›å»ºæˆåŠŸ
2025-08-03 17:32:38,239 - src.stk_interface.stk_manager - INFO - ä½¿ç”¨COMæ¥å£åˆ›å»ºè½½è·: Satellite09_Payload
2025-08-03 17:32:39,240 - src.stk_interface.stk_manager - INFO - =============== å¼€å§‹è¯¦ç»†é…ç½®è½½è·å‚æ•° ===============
2025-08-03 17:32:39,241 - src.stk_interface.stk_manager - INFO - æ¥æ”¶åˆ°çš„è½½è·å‚æ•°: {'type': 'Optical_Sensor', 'mounting': 'Nadir', 'sensor_pattern': 'Conic', 'inner_cone_half_angle': 66.1, 'outer_cone_half_angle': 85.0, 'clockwise_angle_min': 0.0, 'clockwise_angle_max': 360.0, 'pointing': {'azimuth': 0.0, 'elevation': 90.0}, 'constraints_range': {'min_range': 0, 'max_range': 5000, 'active': True}}
2025-08-03 17:32:39,241 - src.stk_interface.stk_manager - INFO - ğŸ”„ å¼€å§‹è®¾ç½®ä¼ æ„Ÿå™¨åœ†é”¥è§†åœºå‚æ•°...
2025-08-03 17:32:39,262 - src.stk_interface.stk_manager - INFO - âœ“ ä½¿ç”¨SetPatternTypeè®¾ç½®ä¼ æ„Ÿå™¨æ¨¡å¼ä¸ºé”¥å½¢æˆåŠŸ
2025-08-03 17:32:39,528 - src.stk_interface.stk_manager - INFO - âœ“ ä½¿ç”¨éªŒè¯æˆåŠŸçš„æ–¹æ³•è®¾ç½®é”¥å½¢å‚æ•°æˆåŠŸ: å†…é”¥è§’66.1Â°, å¤–é”¥è§’85.0Â°
2025-08-03 17:32:39,583 - src.stk_interface.stk_manager - INFO - âœ“ ä½¿ç”¨STKå®˜æ–¹æ–¹æ³•è®¾ç½®æŒ‡å‘å‚æ•°æˆåŠŸ: æ–¹ä½è§’0.0Â°, ä¿¯ä»°è§’90.0Â°
2025-08-03 17:32:39,583 - src.stk_interface.stk_manager - INFO - =============== å¼€å§‹é…ç½®ä¼ æ„Ÿå™¨çº¦æŸ ===============
2025-08-03 17:32:40,112 - src.stk_interface.stk_manager - INFO - âœ“ è·å–ä¼ æ„Ÿå™¨çº¦æŸå¯¹è±¡æˆåŠŸ
2025-08-03 17:32:40,112 - src.stk_interface.stk_manager - INFO - é…ç½®è·ç¦»çº¦æŸ: 0 km åˆ° 5000 km
2025-08-03 17:32:40,682 - src.stk_interface.stk_manager - INFO - âœ“ è®¾ç½®è·ç¦»çº¦æŸæˆåŠŸ: 0 km åˆ° 5000 km
2025-08-03 17:32:40,682 - src.stk_interface.stk_manager - INFO - === ä¼ æ„Ÿå™¨çº¦æŸé…ç½®ç»“æœæ€»ç»“ ===
2025-08-03 17:32:40,683 - src.stk_interface.stk_manager - INFO - æˆåŠŸé…ç½®çš„çº¦æŸ (1 ä¸ª):
2025-08-03 17:32:40,683 - src.stk_interface.stk_manager - INFO -   âœ“ è·ç¦»çº¦æŸ(0 km åˆ° 5000 km)
2025-08-03 17:32:40,683 - src.stk_interface.stk_manager - INFO - =============== ä¼ æ„Ÿå™¨çº¦æŸé…ç½®å®Œæˆ ===============
2025-08-03 17:32:40,687 - src.stk_interface.stk_manager - INFO - === è½½è·é…ç½®ç»“æœæ€»ç»“ ===
2025-08-03 17:32:40,687 - src.stk_interface.stk_manager - INFO - æˆåŠŸé…ç½®çš„å‚æ•° (3 ä¸ª):
2025-08-03 17:32:40,687 - src.stk_interface.stk_manager - INFO -   âœ“ åœ†é”¥è§†åœºå‚æ•°(éªŒè¯æˆåŠŸæ–¹æ³•, å†…é”¥è§’66.1Â°, å¤–é”¥è§’85.0Â°)
2025-08-03 17:32:40,688 - src.stk_interface.stk_manager - INFO -   âœ“ æŒ‡å‘å‚æ•°(STKå®˜æ–¹æ–¹æ³•, æ–¹ä½è§’0.0Â°, ä¿¯ä»°è§’90.0Â°)
2025-08-03 17:32:40,688 - src.stk_interface.stk_manager - INFO -   âœ“ è·ç¦»çº¦æŸ(0 km åˆ° 5000 km)
2025-08-03 17:32:40,688 - src.stk_interface.stk_manager - INFO - æ‰€æœ‰å‚æ•°é…ç½®æˆåŠŸï¼
2025-08-03 17:32:40,688 - src.stk_interface.stk_manager - INFO - === è½½è·é…ç½®å®Œæˆ ===
2025-08-03 17:32:40,688 - src.stk_interface.stk_manager - INFO - è½½è· Satellite09_Payload åˆ›å»ºæˆåŠŸ
2025-08-03 17:32:40,693 - src.constellation.constellation_manager - INFO - âœ… å«æ˜Ÿåˆ›å»ºæˆåŠŸ: Satellite09 (è½¨é“é¢3, ä½ç½®3)
2025-08-03 17:32:40,693 - src.constellation.constellation_manager - INFO - ğŸŒŸ Walkeræ˜Ÿåº§åˆ›å»ºå®Œæˆï¼Œå…±åˆ›å»º9é¢—å«æ˜Ÿ
2025-08-03 17:32:40,693 - src.constellation.constellation_manager - INFO - âœ… Walkeræ˜Ÿåº§åˆ›å»ºæˆåŠŸï¼Œå…±9é¢—å«æ˜Ÿ
2025-08-03 17:32:40,694 - src.meta_task_main - INFO - ğŸ“Š Walkeræ˜Ÿåº§é…ç½®ä¿¡æ¯:
2025-08-03 17:32:40,695 - src.meta_task_main - INFO -    æ˜Ÿåº§ç±»å‹: Walker
2025-08-03 17:32:40,695 - src.meta_task_main - INFO -    è½¨é“é¢æ•°: 3
2025-08-03 17:32:40,695 - src.meta_task_main - INFO -    æ¯é¢å«æ˜Ÿæ•°: 3
2025-08-03 17:32:40,695 - src.meta_task_main - INFO -    æ€»å«æ˜Ÿæ•°: 9
2025-08-03 17:32:40,695 - src.meta_task_main - INFO - âœ… æ˜Ÿåº§è®¾ç½®å®Œæˆ
2025-08-03 17:32:40,696 - src.meta_task_main - INFO - ğŸš€ è®¾ç½®åˆå§‹å¯¼å¼¹ç›®æ ‡...
2025-08-03 17:32:40,696 - src.stk_interface.missile_manager - INFO - ğŸ² ç”Ÿæˆéšæœºå…¨çƒå¯¼å¼¹: GlobalThreat_001_1532
2025-08-03 17:32:40,696 - src.stk_interface.missile_manager - INFO -    å‘å°„ä½ç½®: çº¬åº¦-28.45Â°, ç»åº¦164.11Â°
2025-08-03 17:32:40,696 - src.stk_interface.missile_manager - INFO -    ç›®æ ‡ä½ç½®: çº¬åº¦-48.22Â°, ç»åº¦-164.52Â°
2025-08-03 17:32:40,696 - src.stk_interface.missile_manager - INFO -    å‘å°„æ—¶é—´: 2025-07-25 11:25:30
2025-08-03 17:32:40,696 - src.stk_interface.missile_manager - INFO -    é£è¡Œæ—¶é—´: 1131ç§’
2025-08-03 17:32:40,697 - src.stk_interface.missile_manager - INFO -    æœ€å¤§é«˜åº¦: 348.6km
2025-08-03 17:32:40,697 - src.stk_interface.missile_manager - INFO - ğŸš€ åˆ›å»ºå•ä¸ªå¯¼å¼¹ç›®æ ‡: GlobalThreat_001_1532
2025-08-03 17:32:40,697 - src.stk_interface.missile_manager - INFO - âœ… æ·»åŠ å¯¼å¼¹ç›®æ ‡é…ç½®: GlobalThreat_001_1532
2025-08-03 17:32:40,697 - src.stk_interface.missile_manager - INFO - ğŸ¯ ä½¿ç”¨ä¼ å…¥çš„å‘å°„æ—¶é—´: 2025-07-25 11:25:30
2025-08-03 17:32:40,697 - src.stk_interface.missile_manager - INFO - ğŸš€ åˆ›å»ºå¯¼å¼¹å¯¹è±¡: GlobalThreat_001_1532
2025-08-03 17:32:40,697 - src.stk_interface.missile_manager - INFO - ğŸ¯ åˆ›å»ºSTKå¯¼å¼¹å¯¹è±¡: GlobalThreat_001_1532
2025-08-03 17:32:40,775 - src.stk_interface.missile_manager - INFO - âœ… å¯¼å¼¹å¯¹è±¡åˆ›å»ºæˆåŠŸ: GlobalThreat_001_1532
2025-08-03 17:32:40,815 - src.stk_interface.missile_manager - INFO - âœ… è½¨è¿¹ç±»å‹è®¾ç½®ä¸ºå¼¹é“: 10
2025-08-03 17:32:40,817 - src.stk_interface.missile_manager - INFO - ğŸ“… åœºæ™¯æ—¶é—´èŒƒå›´: 25 Jul 2025 00:00:00.000 - 26 Jul 2025 00:00:00.000
2025-08-03 17:32:40,852 - src.stk_interface.missile_manager - INFO - âœ… EphemerisIntervalæ—¶é—´è®¾ç½®æˆåŠŸ: 25 Jul 2025 11:25:30.000 - 25 Jul 2025 11:55:30.000
2025-08-03 17:32:40,853 - src.stk_interface.missile_manager - INFO - ğŸ¯ å¯¼å¼¹æ—¶é—´è®¾ç½®å®Œæˆ:
2025-08-03 17:32:40,853 - src.stk_interface.missile_manager - INFO -    å‘å°„æ—¶é—´: 25 Jul 2025 11:25:30.000
2025-08-03 17:32:40,853 - src.stk_interface.missile_manager - INFO -    æ’å‡»æ—¶é—´: 25 Jul 2025 11:55:30.000
2025-08-03 17:32:40,853 - src.stk_interface.missile_manager - INFO -    é£è¡Œæ—¶é—´: 30åˆ†é’Ÿ
2025-08-03 17:32:40,961 - src.stk_interface.missile_manager - INFO - âœ… å‘å°„ä½ç½®è®¾ç½®æˆåŠŸ
2025-08-03 17:32:41,049 - src.stk_interface.missile_manager - INFO - âœ… æ’å‡»ä½ç½®è®¾ç½®æˆåŠŸ
2025-08-03 17:32:41,092 - src.stk_interface.missile_manager - INFO - âœ… å‘å°„æ§åˆ¶è®¾ç½®æˆåŠŸ: 1040.7km
2025-08-03 17:32:41,148 - src.stk_interface.missile_manager - INFO - âœ… è½¨è¿¹ä¼ æ’­æˆåŠŸ
2025-08-03 17:32:41,160 - src.stk_interface.missile_manager - INFO - ğŸ” éªŒè¯è½¨è¿¹ä¼ æ’­: GlobalThreat_001_1532
2025-08-03 17:32:41,179 - src.stk_interface.missile_manager - INFO -    â° ä½¿ç”¨åœºæ™¯æ—¶é—´èŒƒå›´: 25 Jul 2025 00:00:00.000 - 26 Jul 2025 00:00:00.000
2025-08-03 17:32:41,205 - src.stk_interface.missile_manager - INFO -    ğŸ“¡ DataProvideræ•°é‡: 156
2025-08-03 17:32:41,216 - src.stk_interface.missile_manager - INFO -    âœ… LLA State DataProviderå¯ç”¨
2025-08-03 17:32:41,220 - src.stk_interface.missile_manager - INFO - âœ… è½¨è¿¹ä¼ æ’­éªŒè¯æˆåŠŸ
